idElset,classificationMarking,satNo,epoch,meanMotion,idOnOrbit,uct,eccentricity,inclination,raan,argOfPerigee,meanAnomaly,bStar,meanMotionDot,meanMotionDDot,semiMajorAxis,period,apogee,perigee,origObjectId,line1,line2,createdAt,createdBy,source,dataMode,ephemType,origNetwork,elset
f1c64d61-d741-4eca-bce9-02fb76b30082,U//PR-EXO-ELSETS,27718,2025-08-09T19:57:57.088751Z,1.002673837796005,27718,False,0.0002796341590915518,3.90263065890327,79.70383046895525,75.1225310468382,250.7843206613084,0.0,0.0,0.0,42165.96788039918,1436.159941267929,42177.75892536969,42154.17683542866,27718,1 27718U 03014A   25221.83191075 +.00000000 +00000+0 +00000+0 2 99998,2 27718   3.9026  79.7038 0002796  75.1225 250.7843  1.00267383000006,2025-08-09T21:48:32.050Z,system.exo,EXO,REAL,2,OPS1,"{'NORAD_ID': 27718, 'classification': 'U', 'COSPAR_ID': '03014A', 'BC': 0.0, 'n_ddot': 0.0, 'B_star': 0.0, 'ephemeris_type': 2, 'elset_num': 9999, 'inclination': 3.9026, 'RAAN': 79.7038, 'eccentricity': 0.0002796, 'perigee': 75.1225, 'mean_anomaly': 250.7843, 'mean_motion': 1.00267383, 'rev_num': 0, 'line1': '1 27718U 03014A   25221.83191075 +.00000000 +00000+0 +00000+0 2 99998', 'line2': '2 27718   3.9026  79.7038 0002796  75.1225 250.7843  1.00267383000006', 'epoch': datetime.datetime(2025, 8, 9, 19, 57, 57, 88800)}"
16f742cf-221a-42f6-9c3f-57c09ce6cf33,U//PR-EXO-ELSETS,32018,2025-08-09T20:07:14.494700Z,0.9913998666404759,32018,False,0.0002850833834309986,3.18906792441837,80.90518659413644,112.2670973842434,219.6255327490197,0.0,0.0,0.0,42485.03284696703,1452.49162164978,42497.14462387622,42472.92107005784,32018,1 32018U 07036A   25221.83836221 +.00000000 +00000+0 +00000+0 2 99994,2 32018   3.1891  80.9052 0002850 112.2671 219.6255  0.99139986000001,2025-08-09T21:06:31.835Z,system.exo,EXO,REAL,2,OPS1,"{'NORAD_ID': 32018, 'classification': 'U', 'COSPAR_ID': '07036A', 'BC': 0.0, 'n_ddot': 0.0, 'B_star': 0.0, 'ephemeris_type': 2, 'elset_num': 9999, 'inclination': 3.1891, 'RAAN': 80.9052, 'eccentricity': 0.000285, 'perigee': 112.2671, 'mean_anomaly': 219.6255, 'mean_motion': 0.99139986, 'rev_num': 0, 'line1': '1 32018U 07036A   25221.83836221 +.00000000 +00000+0 +00000+0 2 99994', 'line2': '2 32018   3.1891  80.9052 0002850 112.2671 219.6255  0.99139986000001', 'epoch': datetime.datetime(2025, 8, 9, 20, 7, 14, 494944)}"
463a0766-76d4-46e1-b47e-8493bd2e4eda,U//PR-EXO-ELSETS,12618,2025-08-09T20:32:57.439298Z,1.00311883253002,12618,False,0.0002936100451590041,7.327790494391772,296.211456490759,200.083005626372,238.0366495929119,0.0,0.0,0.0,42153.49676157828,1435.522844654505,42165.87345166606,42141.1200714905,12618,1 12618U 81069A   25221.85622036 +.00000000 +00000+0 +00000+0 2 99995,2 12618   7.3278 296.2115 0002936 200.0830 238.0366  1.00311883000009,2025-08-09T21:09:31.284Z,system.exo,EXO,REAL,2,OPS1,"{'NORAD_ID': 12618, 'classification': 'U', 'COSPAR_ID': '81069A', 'BC': 0.0, 'n_ddot': 0.0, 'B_star': 0.0, 'ephemeris_type': 2, 'elset_num': 9999, 'inclination': 7.3278, 'RAAN': 296.2115, 'eccentricity': 0.0002936, 'perigee': 200.083, 'mean_anomaly': 238.0366, 'mean_motion': 1.00311883, 'rev_num': 0, 'line1': '1 12618U 81069A   25221.85622036 +.00000000 +00000+0 +00000+0 2 99995', 'line2': '2 12618   7.3278 296.2115 0002936 200.0830 238.0366  1.00311883000009', 'epoch': datetime.datetime(2025, 8, 9, 20, 32, 57, 439104)}"
ea570a01-abb4-43d5-82f6-58a782a7c3e7,U//PR-EXO-ELSETS,11708,2025-08-09T20:32:39.775342Z,1.002711672489778,11708,False,0.0002385766333891769,6.484877315359405,289.6661285497262,276.4092616260258,168.1514017791138,0.0,0.0,0.0,42164.90719229446,1436.105751541133,42174.96675389956,42154.84763068935,11708,1 11708U 80016A   25221.85601592 +.00000000 +00000+0 +00000+0 2 99999,2 11708   6.4849 289.6661 0002385 276.4093 168.1514  1.00271167000008,2025-08-09T21:09:31.283Z,system.exo,EXO,REAL,2,OPS1,"{'NORAD_ID': 11708, 'classification': 'U', 'COSPAR_ID': '80016A', 'BC': 0.0, 'n_ddot': 0.0, 'B_star': 0.0, 'ephemeris_type': 2, 'elset_num': 9999, 'inclination': 6.4849, 'RAAN': 289.6661, 'eccentricity': 0.0002385, 'perigee': 276.4093, 'mean_anomaly': 168.1514, 'mean_motion': 1.00271167, 'rev_num': 0, 'line1': '1 11708U 80016A   25221.85601592 +.00000000 +00000+0 +00000+0 2 99999', 'line2': '2 11708   6.4849 289.6661 0002385 276.4093 168.1514  1.00271167000008', 'epoch': datetime.datetime(2025, 8, 9, 20, 32, 39, 775488)}"
fa8d6b36-9262-47cd-aee0-142ed2c01025,U//PR-EXO-ELSETS,40107,2025-08-09T20:41:26.980690Z,1.002696614960606,40107,False,0.0001527868511487092,0.01667217882492484,175.1780772535416,314.4527435076937,244.6273570990579,0.0,0.0,0.0,42165.32931913494,1436.127317590052,42171.77162702926,42158.88701124062,40107,1 40107U 14046A   25221.86211783 +.00000000 +00000+0 +00000+0 2 99994,2 40107   0.0167 175.1781 0001527 314.4527 244.6274  1.00269661000009,2025-08-09T21:06:31.843Z,system.exo,EXO,REAL,2,OPS1,"{'NORAD_ID': 40107, 'classification': 'U', 'COSPAR_ID': '14046A', 'BC': 0.0, 'n_ddot': 0.0, 'B_star': 0.0, 'ephemeris_type': 2, 'elset_num': 9999, 'inclination': 0.0167, 'RAAN': 175.1781, 'eccentricity': 0.0001527, 'perigee': 314.4527, 'mean_anomaly': 244.6274, 'mean_motion': 1.00269661, 'rev_num': 0, 'line1': '1 40107U 14046A   25221.86211783 +.00000000 +00000+0 +00000+0 2 99994', 'line2': '2 40107   0.0167 175.1781 0001527 314.4527 244.6274  1.00269661000009', 'epoch': datetime.datetime(2025, 8, 9, 20, 41, 26, 980512)}"
1c60dea4-ad2c-41d1-b31c-ceb4ccb405c6,U//PR-EXO-ELSETS,37933,2025-08-09T20:41:26.980690Z,1.0026987908433,37933,False,0.0001741478103488274,0.01381509341154622,155.6898834014495,314.9040771005829,263.8664699380114,0.0,0.0,0.0,42165.26831919866,1436.124201156078,42172.61130834922,42157.9253300481,37933,1 37933U 11069A   25221.86211783 +.00000000 +00000+0 +00000+0 2 99999,2 37933   0.0138 155.6899 0001741 314.9041 263.8665  1.00269879000005,2025-08-09T21:30:31.514Z,system.exo,EXO,REAL,2,OPS1,"{'NORAD_ID': 37933, 'classification': 'U', 'COSPAR_ID': '11069A', 'BC': 0.0, 'n_ddot': 0.0, 'B_star': 0.0, 'ephemeris_type': 2, 'elset_num': 9999, 'inclination': 0.0138, 'RAAN': 155.6899, 'eccentricity': 0.0001741, 'perigee': 314.9041, 'mean_anomaly': 263.8665, 'mean_motion': 1.00269879, 'rev_num': 0, 'line1': '1 37933U 11069A   25221.86211783 +.00000000 +00000+0 +00000+0 2 99999', 'line2': '2 37933   0.0138 155.6899 0001741 314.9041 263.8665  1.00269879000005', 'epoch': datetime.datetime(2025, 8, 9, 20, 41, 26, 980512)}"
752d9e8f-51cf-41a6-9e6a-e577fed702e0,U//PR-EXO-ELSETS,41194,2025-08-09T20:41:26.980690Z,1.002693102453573,41194,False,0.0001885950093786723,0.03435557675826732,114.1203495401466,65.99984265862973,194.5455940155891,0.0,0.0,0.0,42165.42779122573,1436.132348448738,42173.37998047547,42157.47560197599,41194,1 41194U 15083A   25221.86211783 +.00000000 +00000+0 +00000+0 2 99993,2 41194   0.0344 114.1203 0001885  65.9998 194.5456  1.00269310000008,2025-08-09T21:24:31.176Z,system.exo,EXO,REAL,2,OPS1,"{'NORAD_ID': 41194, 'classification': 'U', 'COSPAR_ID': '15083A', 'BC': 0.0, 'n_ddot': 0.0, 'B_star': 0.0, 'ephemeris_type': 2, 'elset_num': 9999, 'inclination': 0.0344, 'RAAN': 114.1203, 'eccentricity': 0.0001885, 'perigee': 65.9998, 'mean_anomaly': 194.5456, 'mean_motion': 1.0026931, 'rev_num': 0, 'line1': '1 41194U 15083A   25221.86211783 +.00000000 +00000+0 +00000+0 2 99993', 'line2': '2 41194   0.0344 114.1203 0001885  65.9998 194.5456  1.00269310000008', 'epoch': datetime.datetime(2025, 8, 9, 20, 41, 26, 980512)}"
c13e06e0-a420-4e89-8f48-1a14d5e2fbc2,U//PR-EXO-ELSETS,14931,2025-08-09T17:16:35.274076Z,1.011532290813454,14931,False,0.00306194763524754,9.379584067370782,313.2124331403601,316.7681355217521,100.0943216180096,0.0,0.0,0.0,41919.42932340736,1423.582828820996,42047.78442089509,41791.07422591962,14931,1 14931U 84037B   25221.71985271 +.00000000 +00000+0 +00000+0 2 99991,2 14931   9.3796 313.2124 0030619 316.7681 100.0943  1.01153229000002,2025-08-09T21:03:31.607Z,system.exo,EXO,REAL,2,OPS1,"{'NORAD_ID': 14931, 'classification': 'U', 'COSPAR_ID': '84037B', 'BC': 0.0, 'n_ddot': 0.0, 'B_star': 0.0, 'ephemeris_type': 2, 'elset_num': 9999, 'inclination': 9.3796, 'RAAN': 313.2124, 'eccentricity': 0.0030619, 'perigee': 316.7681, 'mean_anomaly': 100.0943, 'mean_motion': 1.01153229, 'rev_num': 0, 'line1': '1 14931U 84037B   25221.71985271 +.00000000 +00000+0 +00000+0 2 99991', 'line2': '2 14931   9.3796 313.2124 0030619 316.7681 100.0943  1.01153229000002', 'epoch': datetime.datetime(2025, 8, 9, 17, 16, 35, 274144)}"
f64acf9a-6738-40b6-8faf-7651e458c110,U//PR-EXO-ELSETS,43611,2025-08-09T20:29:58.377022Z,1.002665406863901,43611,False,0.0002348678618620815,0.03623390456590447,266.4632524197675,230.6283171391156,266.9842771379349,0.0,0.0,0.0,42166.20424899011,1436.172017247486,42176.10773522491,42156.30076275532,43611,1 43611U 18069A   25221.85414788 +.00000000 +00000+0 +00000+0 2 99995,2 43611   0.0362 266.4633 0002348 230.6283 266.9843  1.00266540000001,2025-08-09T21:48:32.064Z,system.exo,EXO,REAL,2,OPS1,"{'NORAD_ID': 43611, 'classification': 'U', 'COSPAR_ID': '18069A', 'BC': 0.0, 'n_ddot': 0.0, 'B_star': 0.0, 'ephemeris_type': 2, 'elset_num': 9999, 'inclination': 0.0362, 'RAAN': 266.4633, 'eccentricity': 0.0002348, 'perigee': 230.6283, 'mean_anomaly': 266.9843, 'mean_motion': 1.0026654, 'rev_num': 0, 'line1': '1 43611U 18069A   25221.85414788 +.00000000 +00000+0 +00000+0 2 99995', 'line2': '2 43611   0.0362 266.4633 0002348 230.6283 266.9843  1.00266540000001', 'epoch': datetime.datetime(2025, 8, 9, 20, 29, 58, 376832)}"
